1 44761U 19074BA  22365.53787489  .00010816  00000-0  74331-3 0  9999
2 44761  53.0548  52.7130 0002144  41.9635 318.1518 15.06429700172906
1 44761U 19074BA  23001.13499587 -.00004117  00000-0 -25761-3 0  9994
2 44761  53.0550  50.0326 0002161  35.0637 325.0494 15.06403813172998
1 44761U 19074BA  23001.53307904 -.00000002  00000-0  18818-4 0  9993
2 44761  53.0559  48.2463 0002223  29.6357 330.4757 15.06394806172886
1 44761U 19074BA  23002.13021355  .00000487  00000-0  51666-4 0  9997
2 44761  53.0550  45.5664 0002417  41.9108 318.2066 15.06376413173147
1 44761U 19074BA  23002.39560088 -.00001509  00000-0 -82442-4 0  9990
2 44761  53.0558  44.3743 0002224  36.2499 323.8641 15.06383829173012
1 44761U 19074BA  23002.79367886  .00003370  00000-0  24507-3 0  9998
2 44761  53.0550  42.5863 0002220  37.2129 322.9014 15.06399341173070
1 44761U 19074BA  23002.79367886  .00003370  00000-0  24507-3 0  9998
2 44761  53.0550  42.5863 0002220  37.2129 322.9014 15.06399341173249
1 44761U 19074BA  23003.39080407  .00007021  00000-0  48970-3 0  9993
2 44761  53.0554  39.9060 0002271  40.8432 319.2727 15.06403341173162
1 44761U 19074BA  23004.12061785  .00000333  00000-0  41278-4 0  9997
2 44761  53.0545  36.6301 0002145  41.7169 318.3983 15.06399350173440
1 44761U 19074BA  23004.38600318  .00003769  00000-0  27177-3 0  9993
2 44761  53.0544  35.4395 0002127  42.4379 317.6774 15.06407257173312
1 44761U 19074BA  23004.78407679  .00009169  00000-0  63324-3 0  9996
2 44761  53.0547  33.6518 0002206  41.2760 318.8395 15.06423763173548
1 44761U 19074BA  23004.85042346  .00011203  00000-0  76930-3 0  9999
2 44761  53.0545  33.3540 0002181  41.0195 319.0957 15.06424435173386
1 44761U 19074BA  23005.11581057  .00003039  00000-0  22275-3 0  9997
2 44761  53.0553  32.1630 0002144  37.8017 322.3122 15.06411289173426
1 44761U 19074BA  23005.11581057  .00003039  00000-0  22275-3 0  9997
2 44761  53.0553  32.1630 0002144  37.8017 322.3122 15.06411289173594
1 44761U 19074BA  23005.77927401  .00002075  00000-0  15811-3 0  9993
2 44761  53.0543  29.1842 0002333  41.5459 318.5706 15.06411201173528
1 44761U 19074BA  23006.31005727 -.00001305  00000-0 -68698-4 0  9991
2 44761  53.0554  26.8000 0001941  34.9577 325.1539 15.06391039173604
1 44761U 19074BA  23006.31005727 -.00001305  00000-0 -68698-4 0  9991
2 44761  53.0554  26.8000 0001941  34.9577 325.1539 15.06391039173772
1 44761U 19074BA  23007.03987248 -.00000624  00000-0 -22950-4 0  9992
2 44761  53.0548  23.5238 0002300  33.5885 326.5250 15.06395405173719
1 44761U 19074BA  23007.03987248 -.00000624  00000-0 -22950-4 0  9992
2 44761  53.0548  23.5238 0002300  33.5885 326.5250 15.06395405173887
1 44761U 19074BA  23007.76969643 -.00000691  00000-0 -27501-4 0  9992
2 44761  53.0565  20.2490 0002097 343.5113  16.5807 15.06388732173824
1 44761U 19074BA  23007.76969643 -.00000691  00000-0 -27501-4 0  9992
2 44761  53.0565  20.2490 0002097 343.5113  16.5807 15.06388732173992
1 44761U 19074BA  23008.03509878  .00001757  00000-0  13689-3 0  9996
2 44761  53.0569  19.0544 0001576  32.9656 327.1431 15.06374889174032
1 44761U 19074BA  23008.30048294  .00004711  00000-0  33509-3 0  9992
2 44761  53.0553  17.8664 0002043  34.4231 325.6890 15.06388667173906
1 44761U 19074BA  23008.30048294  .00004711  00000-0  33509-3 0  9992
2 44761  53.0553  17.8664 0002043  34.4231 325.6890 15.06388667174075
1 44761U 19074BA  23009.29568245  .00006918  00000-0  48276-3 0  9992
2 44761  53.0552  13.3980 0002150  36.9659 323.1478 15.06406459174059
1 44761U 19074BA  23009.29568245  .00006918  00000-0  48276-3 0  9992
2 44761  53.0552  13.3980 0002150  36.9659 323.1478 15.06406459174228
1 44761U 19074BA  23009.69375431  .00010501  00000-0  72243-3 0  9993
2 44761  53.0543  11.6106 0002081  41.4231 318.6915 15.06421239174283
1 44761U 19074BA  23009.82644764  .00007242  00000-0  50429-3 0  9996
2 44761  53.0528  11.0153 0002258  47.5254 312.5925 15.06419031174135
1 44761U 19074BA  23010.29087772 -.00000158  00000-0  82984-5 0  9992
2 44761  53.0550   8.9309 0001976  40.9868 319.1269 15.06402937174379
1 44761U 19074BA  23010.35722297 -.00000312  00000-0 -20280-5 0  9991
2 44761  53.0551   8.6326 0002085  40.1397 319.9745 15.06406818174219
1 44761U 19074BA  23010.68895042  .00001367  00000-0  11062-3 0  9991
2 44761  53.0552   7.1428 0001994  39.5845 320.5289 15.06414806174267
1 44761U 19074BA  23010.68895042  .00001367  00000-0  11062-3 0  9991
2 44761  53.0552   7.1428 0001994  39.5845 320.5289 15.06414806174436
1 44761U 19074BA  23011.28606872  .00009860  00000-0  67963-3 0  9996
2 44761  53.0540   4.4632 0001431  60.1195 299.9936 15.06414709174355
1 44761U 19074BA  23011.68414872  .00006232  00000-0  43677-3 0  9993
2 44761  53.0546   2.6766 0001896  40.8456 319.2674 15.06412671174585
1 44761U 19074BA  23011.81684358  .00005032  00000-0  35641-3 0  9995
2 44761  53.0546   2.0806 0002136  45.9499 314.1665 15.06409408174437
1 44761U 19074BA  23012.67935108  .00002532  00000-0  18881-3 0  9991
2 44761  53.0548 358.2079 0001765  45.8066 314.3068 15.06398594174738
1 44761U 19074BA  23012.94473885  .00000422  00000-0  47253-4 0  9992
2 44761  53.0556 357.0167 0001867  44.0850 316.0288 15.06399644174603
1 44761U 19074BA  23013.21012033  .00002909  00000-0  21406-3 0  9990
2 44761  53.0555 355.8255 0001920  46.1282 313.9865 15.06412342174640
1 44761U 19074BA  23013.21012033  .00002909  00000-0  21406-3 0  9990
2 44761  53.0555 355.8255 0001920  46.1282 313.9865 15.06412342174819
1 44761U 19074BA  23013.67455684  .00000320  00000-0  40414-4 0  9999
2 44761  53.0550 353.7422 0002195  46.7205 313.3967 15.06397548174719
1 44761U 19074BA  23013.67455684  .00000320  00000-0  40414-4 0  9999
2 44761  53.0550 353.7422 0002195  46.7205 313.3967 15.06397548174887
1 44761U 19074BA  23014.13899930 -.00003552  00000-0 -21981-3 0  9996
2 44761  53.0536 351.6546 0001808  61.6649 298.4522 15.06377750174954
1 44761U 19074BA  23014.73612413  .00002142  00000-0  16275-3 0  9993
2 44761  53.0517 348.9761 0001694  65.4027 294.7138 15.06385790175042
1 44761U 19074BA  23015.20055486  .00016370  00000-0  11151-2 0  9992
2 44761  53.0512 346.8889 0001819  61.7587 298.3585 15.06407578175117
1 44761U 19074BA  23015.59863589  .00008600  00000-0  59547-3 0  9994
2 44761  53.0514 345.1024 0001606  62.5954 297.5198 15.06404824175003
1 44761U 19074BA  23015.59863589  .00008600  00000-0  59547-3 0  9994
2 44761  53.0514 345.1024 0001606  62.5954 297.5198 15.06404824175171
1 44761U 19074BA  23015.86402359  .00006393  00000-0  44761-3 0  9997
2 44761  53.0515 343.9129 0001603  63.7812 296.3341 15.06404082175046
1 44761U 19074BA  23016.19574861  .00012074  00000-0  82758-3 0  9993
2 44761  53.0529 342.4207 0001581  75.7994 284.3170 15.06421871175267
1 44761U 19074BA  23016.59383272  .00003300  00000-0  24027-3 0  9998
2 44761  53.0516 340.6366 0001385  72.7142 287.3998 15.06407671175154
1 44761U 19074BA  23016.72653045 -.00002955  00000-0 -17959-3 0  9994
2 44761  53.0511 340.0401 0001723  97.9139 262.2046 15.06391923175343
1 44761U 19074BA  23016.85922395 -.00006672  00000-0 -42959-3 0  9993
2 44761  53.0510 339.4432 0001502  94.2822 265.8339 15.06387543175192
1 44761U 19074BA  23017.58904332  .00005554  00000-0  39157-3 0  9997
2 44761  53.0508 336.1669 0001341  94.5961 265.5181 15.06390410175305
1 44761U 19074BA  23018.25251988  .00002825  00000-0  20850-3 0  9992
2 44761  53.0527 333.1886 0001699  90.9846 269.1338 15.06390564175575
1 44761U 19074BA  23018.58425371  .00008262  00000-0  57287-3 0  9992
2 44761  53.0524 331.7002 0001729  94.8762 265.2424 15.06400420175453
1 44761U 19074BA  23019.11502174  .00019695  00000-0  13364-2 0  9998
2 44761  53.0511 329.3161 0001618  95.6399 264.4774 15.06427440175708
1 44761U 19074BA  23019.57945303  .00014240  00000-0  97271-3 0  9994
2 44761  53.0520 327.2311 0001720  81.5224 278.5960 15.06408078175605
1 44761U 19074BA  23019.57945303  .00014240  00000-0  97271-3 0  9994
2 44761  53.0520 327.2311 0001720  81.5224 278.5960 15.06408078175773
1 44761U 19074BA  23020.11023271  .00005751  00000-0  40473-3 0  9996
2 44761  53.0534 324.8461 0001944  98.2482 261.8728 15.06395469175851
1 44761U 19074BA  23021.23812698  .00019683  00000-0  13356-2 0  9997
2 44761  53.0525 319.7842 0001356  98.9382 261.1760 15.06428408176029
1 44761U 19074BA  23022.10063385  .00023655  00000-0  16008-2 0  9996
2 44761  53.0524 315.9125 0001505 107.0019 253.1135 15.06418685176152
1 44761U 19074BA  23022.49871923  .00024001  00000-0  16248-2 0  9995
2 44761  53.0526 314.1261 0002789  80.6979 279.4325 15.06396040176211
1 44761U 19074BA  23023.09584498  .00018870  00000-0  12828-2 0  9997
2 44761  53.0511 311.4455 0001299  91.1096 269.0042 15.06384971176303
1 44761U 19074BA  23024.15739671  .00014029  00000-0  95855-3 0  9994
2 44761  53.0524 306.6797 0001626  85.9583 274.1592 15.06409741176465
1 44761U 19074BA  23025.08624715  .00004987  00000-0  35332-3 0  9995
2 44761  53.0518 302.5058 0001344  81.7317 278.3824 15.06410466176605
1 44761U 19074BA  23025.48433046  .00001909  00000-0  14699-3 0  9998
2 44761  53.0514 300.7218 0001444  80.3026 279.8126 15.06401149176498
1 44761U 19074BA  23025.48433046  .00001909  00000-0  14699-3 0  9998
2 44761  53.0514 300.7218 0001444  80.3026 279.8126 15.06401149176667
1 44761U 19074BA  23026.01510633  .00000891  00000-0  78714-4 0  9994
2 44761  53.0513 298.3357 0001262  87.7021 272.4113 15.06398160176579
1 44761U 19074BA  23026.87761296  .00001987  00000-0  15220-3 0  9990
2 44761  53.0511 294.4636 0001185  91.1277 268.9848 15.06403942176873
1 44761U 19074BA  23027.14299737  .00003888  00000-0  27966-3 0  9999
2 44761  53.0512 293.2714 0001216  95.2322 264.8806 15.06409787176747
1 44761U 19074BA  23027.67377966  .00000361  00000-0  43106-4 0  9996
2 44761  53.0500 290.8914 0000874  95.6930 264.4158 15.06392358176995
1 44761U 19074BA  23027.87281812  .00001206  00000-0  99857-4 0  9995
2 44761  53.0503 289.9963 0001387 122.4254 237.6870 15.06397137176857
1 44761U 19074BA  23028.13820489  .00004040  00000-0  28993-3 0  9995
2 44761  53.0500 288.8065 0001000  92.1051 268.0052 15.06402561176897
1 44761U 19074BA  23028.13820489  .00004040  00000-0  28993-3 0  9995
2 44761  53.0500 288.8065 0001000  92.1051 268.0052 15.06402561177067
1 44761U 19074BA  23028.73532846  .00000188  00000-0  31482-4 0  9995
2 44761  53.0500 286.1250 0001015  96.1826 263.9279 15.06395091177158
1 44761U 19074BA  23028.86802148  .00000389  00000-0  44976-4 0  9999
2 44761  53.0501 285.5292 0001011  97.3976 262.7128 15.06397737177006
1 44761U 19074BA  23029.86322575  .00002221  00000-0  16797-3 0  9997
2 44761  53.0500 281.0618 0000948 102.7183 257.3912 15.06398043177155
1 44761U 19074BA  23030.06226907  .00005589  00000-0  39383-3 0  9999
2 44761  53.0501 280.1683 0000920  94.2701 265.8393 15.06394302177183
1 44761U 19074BA  23030.06226907  .00005589  00000-0  39383-3 0  9999
2 44761  53.0501 280.1683 0000920  94.2701 265.8393 15.06394302177352
1 44761U 19074BA  23030.92477700  .00000594  00000-0  58791-4 0  9999
2 44761  53.0500 276.2963 0000910  91.5485 268.5608 15.06396561177310
1 44761U 19074BA  23031.05746892  .00001330  00000-0  10812-3 0  9995
2 44761  53.0500 275.7005 0000926  92.5182 267.5913 15.06400072177336
1 44761U 19074BA  23031.65459374  .00000845  00000-0  75577-4 0  9997
2 44761  53.0505 273.0199 0000911 100.4087 259.7005 15.06399347177598
1 44761U 19074BA  23031.91998027  .00000759  00000-0  69812-4 0  9998
2 44761  53.0505 271.8284 0000908  99.6983 260.4109 15.06399991177464
